STARLINK-1765
1 46344U 20062V   26092.94765499  .04665858  12038-4  13476-2 0  9996
2 46344  53.0236 176.2773 0009770 334.2498  25.8055 16.26570190309241
